[{"OBJECT_NAME":"ATHENA EPIC","OBJECT_ID":"2025-154C","EPOCH":"2026-03-09T17:44:05.751744","MEAN_MOTION":14.93726693,"ECCENTRICITY":0.00058305,"INCLINATION":97.6779,"RA_OF_ASC_NODE":134.8687,"ARG_OF_PERICENTER":203.8388,"MEAN_ANOMALY":156.2563,"EPHEMERIS_TYPE":0,"CLASSIFICATION_TYPE":"U","NORAD_CAT_ID":64871,"ELEMENT_SET_NO":999,"REV_AT_EPOCH":3416,"BSTAR":0.00033901039,"MEAN_MOTION_DOT":3.534e-5,"MEAN_MOTION_DDOT":0},{"OBJECT_NAME":"TRACERS 2","OBJECT_ID":"2025-154E","EPOCH":"2026-03-09T22:30:20.763648","MEAN_MOTION":14.93139805,"ECCENTRICITY":0.00022565,"INCLINATION":97.68,"RA_OF_ASC_NODE":134.9823,"ARG_OF_PERICENTER":263.0994,"MEAN_ANOMALY":96.9969,"EPHEMERIS_TYPE":0,"CLASSIFICATION_TYPE":"U","NORAD_CAT_ID":64873,"ELEMENT_SET_NO":999,"REV_AT_EPOCH":3418,"BSTAR":0.0002463614,"MEAN_MOTION_DOT":2.514e-5,"MEAN_MOTION_DDOT":0}]
